ICEYE-X40               
1 60549U 24149CK  26197.15895808  .00001482  00000+0  13018-3 0  9993
2 60549  97.6815 273.1916 0004358   3.2636 356.8614 14.98077806104414
ICEYE-X49               
1 62384U 24247H   26197.41054488  .00001508  00000+0  96897-4 0  9997
2 62384  44.9979 201.2947 0001063 238.1905 121.8869 15.13517281 86609
ICEYE-X47               
1 62389U 24247N   26197.38645939  .00000916  00000+0  64475-4 0  9994
2 62389  44.9962 201.0174 0001344 355.7605   4.3261 15.13487300 86600
ICEYE-X42               
1 62698U 25009CT  26197.18226933  .00000899  00000+0  94548-4 0  9995
2 62698  97.7390 274.9743 0001282  97.5007 262.6358 14.91855994 81618
ICEYE-X41               
1 62700U 25009CV  26197.21629955  .00001491  00000+0  13491-3 0  9990
2 62700  97.7059 276.3218 0000242 262.0461  98.0733 14.96915512 81756
ICEYE-X45               
1 62705U 25009DA  26197.19797822  .00004568  00000+0  36412-3 0  9997
2 62705  97.8423 284.1255 0001076  54.7378 305.3946 15.00841363 82034
ICEYE-X44               
1 62707U 25009DC  26197.64724350  .00001574  00000+0  14485-3 0  9995
2 62707  97.7059 276.3084 0002456  69.0690 291.0794 14.96172516104344
ICEYE-X48               
1 63253U 25052AV  26197.64642183  .00001878  00000+0  16339-3 0  9990
2 63253  97.6839  89.3812 0004112 100.7207 259.4478 14.98131474 73088
ICEYE-X50               
1 63255U 25052AX  26197.86879166  .00000525  00000+0  52723-4 0  9995
2 63255  97.6855  89.1900 0003445  98.1397 262.0215 14.95368040 73089
ICEYE-X51               
1 63257U 25052AZ  26197.85888600  .00002482  00000+0  19986-3 0  9996
2 63257  97.7611  92.9024 0002051  66.2859 293.8580 15.00877848 73256
ICEYE-X46               
1 63258U 25052BA  26197.66477111  .00000798  00000+0  77462-4 0  9999
2 63258  97.6857  88.9890 0001675  80.8155 279.3256 14.95370231 73050
ICEYE-X54               
1 64570U 25135AU  26197.81584230  .00001352  00000+0  12976-3 0  9992
2 64570  97.7747 311.9565 0002158 176.2624 183.8612 14.94737249 58326
ICEYE-X52               
1 64572U 25135AW  26197.81487240  .00000870  00000+0  87689-4 0  9995
2 64572  97.7769 311.7426 0001371 182.0639 178.0575 14.93656042 58305
ICEYE-X56               
1 64574U 25135AY  26197.80215796  .00002025  00000+0  18683-3 0  9992
2 64574  97.7769 312.5340 0001504 182.6615 177.4598 14.95768794 58352
ICEYE-X57               
1 64578U 25135BC  26197.80138795  .00002435  00000+0  19622-3 0  9998
2 64578  97.8031 314.3622 0002167  58.1080 302.0354 15.00869645 58463
ICEYE-X55               
1 64581U 25135BF  26197.81004580  .00001786  00000+0  16705-3 0  9994
2 64581  97.7768 312.3665 0001945 225.7013 134.4049 14.95368525 58348
