{"fetched_at":"2026-07-17T06:38:20.138Z","source":"https://celestrak.org/NORAD/elements/gp.php?NAME=ICEYE&FORMAT=JSON","constellation":"iceye","records":[{"OBJECT_NAME":"ICEYE-X40","OBJECT_ID":"2024-149CK","EPOCH":"2026-07-16T03:48:53.978112","CLASSIFICATION_TYPE":"U","MEAN_MOTION":14.98077806,"ECCENTRICITY":0.0004358,"INCLINATION":97.6815,"RA_OF_ASC_NODE":273.1916,"ARG_OF_PERICENTER":3.2636,"MEAN_ANOMALY":356.8614,"EPHEMERIS_TYPE":0,"NORAD_CAT_ID":60549,"ELEMENT_SET_NO":999,"REV_AT_EPOCH":10441,"BSTAR":0.00013018,"MEAN_MOTION_DOT":0.00001482,"MEAN_MOTION_DDOT":0},{"OBJECT_NAME":"ICEYE-X49","OBJECT_ID":"2024-247H","EPOCH":"2026-07-16T09:51:11.077632","CLASSIFICATION_TYPE":"U","MEAN_MOTION":15.13517281,"ECCENTRICITY":0.0001063,"INCLINATION":44.9979,"RA_OF_ASC_NODE":201.2947,"ARG_OF_PERICENTER":238.1905,"MEAN_ANOMALY":121.8869,"EPHEMERIS_TYPE":0,"NORAD_CAT_ID":62384,"ELEMENT_SET_NO":999,"REV_AT_EPOCH":8660,"BSTAR":0.000096897,"MEAN_MOTION_DOT":0.00001508,"MEAN_MOTION_DDOT":0},{"OBJECT_NAME":"ICEYE-X47","OBJECT_ID":"2024-247N","EPOCH":"2026-07-16T09:16:30.091296","CLASSIFICATION_TYPE":"U","MEAN_MOTION":15.134873,"ECCENTRICITY":0.0001344,"INCLINATION":44.9962,"RA_OF_ASC_NODE":201.0174,"ARG_OF_PERICENTER":355.7605,"MEAN_ANOMALY":4.3261,"EPHEMERIS_TYPE":0,"NORAD_CAT_ID":62389,"ELEMENT_SET_NO":999,"REV_AT_EPOCH":8660,"BSTAR":0.000064475,"MEAN_MOTION_DOT":0.00000916,"MEAN_MOTION_DDOT":0},{"OBJECT_NAME":"ICEYE-X42","OBJECT_ID":"2025-009CT","EPOCH":"2026-07-16T04:22:28.070112","CLASSIFICATION_TYPE":"U","MEAN_MOTION":14.91855994,"ECCENTRICITY":0.00012829,"INCLINATION":97.739,"RA_OF_ASC_NODE":274.9743,"ARG_OF_PERICENTER":97.5007,"MEAN_ANOMALY":262.6358,"EPHEMERIS_TYPE":0,"NORAD_CAT_ID":62698,"ELEMENT_SET_NO":999,"REV_AT_EPOCH":8161,"BSTAR":0.000094548175,"MEAN_MOTION_DOT":0.00000899,"MEAN_MOTION_DDOT":0},{"OBJECT_NAME":"ICEYE-X41","OBJECT_ID":"2025-009CV","EPOCH":"2026-07-16T05:11:28.281120","CLASSIFICATION_TYPE":"U","MEAN_MOTION":14.96915512,"ECCENTRICITY":0.0000242,"INCLINATION":97.7059,"RA_OF_ASC_NODE":276.3218,"ARG_OF_PERICENTER":262.0461,"MEAN_ANOMALY":98.0733,"EPHEMERIS_TYPE":0,"NORAD_CAT_ID":62700,"ELEMENT_SET_NO":999,"REV_AT_EPOCH":8175,"BSTAR":0.00013491,"MEAN_MOTION_DOT":0.00001491,"MEAN_MOTION_DDOT":0},{"OBJECT_NAME":"ICEYE-X45","OBJECT_ID":"2025-009DA","EPOCH":"2026-07-16T04:45:05.318208","CLASSIFICATION_TYPE":"U","MEAN_MOTION":15.00841363,"ECCENTRICITY":0.0001076,"INCLINATION":97.8423,"RA_OF_ASC_NODE":284.1255,"ARG_OF_PERICENTER":54.7378,"MEAN_ANOMALY":305.3946,"EPHEMERIS_TYPE":0,"NORAD_CAT_ID":62705,"ELEMENT_SET_NO":999,"REV_AT_EPOCH":8203,"BSTAR":0.00036412,"MEAN_MOTION_DOT":0.00004568,"MEAN_MOTION_DDOT":0},{"OBJECT_NAME":"ICEYE-X44","OBJECT_ID":"2025-009DC","EPOCH":"2026-07-16T15:32:01.838400","CLASSIFICATION_TYPE":"U","MEAN_MOTION":14.96172516,"ECCENTRICITY":0.0002456,"INCLINATION":97.7059,"RA_OF_ASC_NODE":276.3084,"ARG_OF_PERICENTER":69.069,"MEAN_ANOMALY":291.0794,"EPHEMERIS_TYPE":0,"NORAD_CAT_ID":62707,"ELEMENT_SET_NO":999,"REV_AT_EPOCH":10434,"BSTAR":0.00014485,"MEAN_MOTION_DOT":0.00001574,"MEAN_MOTION_DDOT":0},{"OBJECT_NAME":"ICEYE-X48","OBJECT_ID":"2025-052AV","EPOCH":"2026-07-16T15:30:50.846112","CLASSIFICATION_TYPE":"U","MEAN_MOTION":14.98131474,"ECCENTRICITY":0.0004112,"INCLINATION":97.6839,"RA_OF_ASC_NODE":89.3812,"ARG_OF_PERICENTER":100.7207,"MEAN_ANOMALY":259.4478,"EPHEMERIS_TYPE":0,"NORAD_CAT_ID":63253,"ELEMENT_SET_NO":999,"REV_AT_EPOCH":7308,"BSTAR":0.00016339,"MEAN_MOTION_DOT":0.00001878,"MEAN_MOTION_DDOT":0},{"OBJECT_NAME":"ICEYE-X50","OBJECT_ID":"2025-052AX","EPOCH":"2026-07-16T20:51:03.599424","CLASSIFICATION_TYPE":"U","MEAN_MOTION":14.9536804,"ECCENTRICITY":0.0003445,"INCLINATION":97.6855,"RA_OF_ASC_NODE":89.19,"ARG_OF_PERICENTER":98.1397,"MEAN_ANOMALY":262.0215,"EPHEMERIS_TYPE":0,"NORAD_CAT_ID":63255,"ELEMENT_SET_NO":999,"REV_AT_EPOCH":7308,"BSTAR":0.000052723,"MEAN_MOTION_DOT":0.00000525,"MEAN_MOTION_DDOT":0},{"OBJECT_NAME":"ICEYE-X51","OBJECT_ID":"2025-052AZ","EPOCH":"2026-07-16T20:36:47.750400","CLASSIFICATION_TYPE":"U","MEAN_MOTION":15.00877848,"ECCENTRICITY":0.0002051,"INCLINATION":97.7611,"RA_OF_ASC_NODE":92.9024,"ARG_OF_PERICENTER":66.2859,"MEAN_ANOMALY":293.858,"EPHEMERIS_TYPE":0,"NORAD_CAT_ID":63257,"ELEMENT_SET_NO":999,"REV_AT_EPOCH":7325,"BSTAR":0.00019986,"MEAN_MOTION_DOT":0.00002482,"MEAN_MOTION_DDOT":0},{"OBJECT_NAME":"ICEYE-X46","OBJECT_ID":"2025-052BA","EPOCH":"2026-07-16T15:57:16.223904","CLASSIFICATION_TYPE":"U","MEAN_MOTION":14.95370231,"ECCENTRICITY":0.0001675,"INCLINATION":97.6857,"RA_OF_ASC_NODE":88.989,"ARG_OF_PERICENTER":80.8155,"MEAN_ANOMALY":279.3256,"EPHEMERIS_TYPE":0,"NORAD_CAT_ID":63258,"ELEMENT_SET_NO":999,"REV_AT_EPOCH":7305,"BSTAR":0.000077462,"MEAN_MOTION_DOT":0.00000798,"MEAN_MOTION_DDOT":0},{"OBJECT_NAME":"ICEYE-X54","OBJECT_ID":"2025-135AU","EPOCH":"2026-07-16T19:34:48.774720","CLASSIFICATION_TYPE":"U","MEAN_MOTION":14.94737249,"ECCENTRICITY":0.0002158,"INCLINATION":97.7747,"RA_OF_ASC_NODE":311.9565,"ARG_OF_PERICENTER":176.2624,"MEAN_ANOMALY":183.8612,"EPHEMERIS_TYPE":0,"NORAD_CAT_ID":64570,"ELEMENT_SET_NO":999,"REV_AT_EPOCH":5832,"BSTAR":0.00012976,"MEAN_MOTION_DOT":0.00001352,"MEAN_MOTION_DDOT":0},{"OBJECT_NAME":"ICEYE-X52","OBJECT_ID":"2025-135AW","EPOCH":"2026-07-16T19:33:24.975360","CLASSIFICATION_TYPE":"U","MEAN_MOTION":14.93656042,"ECCENTRICITY":0.0001371,"INCLINATION":97.7769,"RA_OF_ASC_NODE":311.7426,"ARG_OF_PERICENTER":182.0639,"MEAN_ANOMALY":178.0575,"EPHEMERIS_TYPE":0,"NORAD_CAT_ID":64572,"ELEMENT_SET_NO":999,"REV_AT_EPOCH":5830,"BSTAR":0.000087689,"MEAN_MOTION_DOT":0.0000087,"MEAN_MOTION_DDOT":0},{"OBJECT_NAME":"ICEYE-X56","OBJECT_ID":"2025-135AY","EPOCH":"2026-07-16T19:15:06.447744","CLASSIFICATION_TYPE":"U","MEAN_MOTION":14.95768794,"ECCENTRICITY":0.0001504,"INCLINATION":97.7769,"RA_OF_ASC_NODE":312.534,"ARG_OF_PERICENTER":182.6615,"MEAN_ANOMALY":177.4598,"EPHEMERIS_TYPE":0,"NORAD_CAT_ID":64574,"ELEMENT_SET_NO":999,"REV_AT_EPOCH":5835,"BSTAR":0.00018683,"MEAN_MOTION_DOT":0.00002025,"MEAN_MOTION_DDOT":0},{"OBJECT_NAME":"ICEYE-X57","OBJECT_ID":"2025-135BC","EPOCH":"2026-07-16T19:13:59.918880","CLASSIFICATION_TYPE":"U","MEAN_MOTION":15.00869645,"ECCENTRICITY":0.0002167,"INCLINATION":97.8031,"RA_OF_ASC_NODE":314.3622,"ARG_OF_PERICENTER":58.108,"MEAN_ANOMALY":302.0354,"EPHEMERIS_TYPE":0,"NORAD_CAT_ID":64578,"ELEMENT_SET_NO":999,"REV_AT_EPOCH":5846,"BSTAR":0.00019622,"MEAN_MOTION_DOT":0.00002435,"MEAN_MOTION_DDOT":0},{"OBJECT_NAME":"ICEYE-X55","OBJECT_ID":"2025-135BF","EPOCH":"2026-07-16T19:26:27.957120","CLASSIFICATION_TYPE":"U","MEAN_MOTION":14.95368525,"ECCENTRICITY":0.0001945,"INCLINATION":97.7768,"RA_OF_ASC_NODE":312.3665,"ARG_OF_PERICENTER":225.7013,"MEAN_ANOMALY":134.4049,"EPHEMERIS_TYPE":0,"NORAD_CAT_ID":64581,"ELEMENT_SET_NO":999,"REV_AT_EPOCH":5834,"BSTAR":0.00016705,"MEAN_MOTION_DOT":0.00001786,"MEAN_MOTION_DDOT":0}]}
